{"type": "FeatureCollection", "features": [ {"type": "Feature", "properties": {"norad_id": 33153, "name": "INTELSAT 25 (IS-25)", "group": "intelsat", "lat": 1.4032209238250846, "lon": 120.3275453018894, "alt_km": 35802.74876390098, "timestamp": "2025-12-22T04:03:38.829510+00:00", "meta": {"OBJECT_NAME": "INTELSAT 25 (IS-25)", "OBJECT_ID": "2008-034A", "EPOCH": "2025-12-21T18:11:05.025984", "MEAN_MOTION": 1.00273075, "ECCENTRICITY": 0.0004784, "INCLINATION": 2.2495, "RA_OF_ASC_NODE": 82.5539, "ARG_OF_PERICENTER": 185.6657, "MEAN_ANOMALY": 63.6158, "EPHEMERIS_TYPE": 0, "CLASSIFICATION_TYPE": "U", "NORAD_CAT_ID": 33153, "ELEMENT_SET_NO": 999, "REV_AT_EPOCH": 6391, "BSTAR": 0, "MEAN_MOTION_DOT": -2.03e-06, "MEAN_MOTION_DDOT": 0}, "tle": {"line1": "1 33153U 08034A   25355.75769706 -.00000203  00000+0  00000+0 0  9991", "line2": "2 33153   2.2495  82.5539 0004784 185.6657  63.6158  1.00273075 63915"}}, "geometry": {"type": "Point", "coordinates": [120.3275453018894, 1.4032209238250846]}}, {"type": "Feature", "properties": {"norad_id": 33376, "name": "GALAXY 19 (G-19)", "group": "intelsat", "lat": 0.04027082915227647, "lon": 54.899728103484094, "alt_km": 35794.28018663824, "timestamp": "2025-12-22T04:03:38.829522+00:00", "meta": {"OBJECT_NAME": "GALAXY 19 (G-19)", "OBJECT_ID": "2008-045A", "EPOCH": "2025-12-21T19:34:49.509120", "MEAN_MOTION": 1.0027126, "ECCENTRICITY": 0.0002568, "INCLINATION": 0.049, "RA_OF_ASC_NODE": 266.6533, "ARG_OF_PERICENTER": 10.6348, "MEAN_ANOMALY": 10.0463, "EPHEMERIS_TYPE": 0, "CLASSIFICATION_TYPE": "U", "NORAD_CAT_ID": 33376, "ELEMENT_SET_NO": 999, "REV_AT_EPOCH": 6312, "BSTAR": 0, "MEAN_MOTION_DOT": -1.17e-06, "MEAN_MOTION_DDOT": 0}, "tle": {"line1": "1 33376U 08045A   25355.81585080 -.00000117  00000+0  00000+0 0  9992", "line2": "2 33376   0.0490 266.6533 0002568  10.6348  10.0463  1.00271260 63126"}}, "geometry": {"type": "Point", "coordinates": [54.899728103484094, 0.04027082915227647]}}, {"type": "Feature", "properties": {"norad_id": 35493, "name": "FM-5", "group": "intelsat", "lat": 0.029879618884897517, "lon": 65.73075366412223, "alt_km": 35786.77162789403, "timestamp": "2025-12-22T04:03:38.829534+00:00", "meta": {"OBJECT_NAME": "FM-5", "OBJECT_ID": "2009-034A", "EPOCH": "2025-12-21T14:30:02.765952", "MEAN_MOTION": 1.0027065, "ECCENTRICITY": 0.0001295, "INCLINATION": 0.026, "RA_OF_ASC_NODE": 287.2191, "ARG_OF_PERICENTER": 232.2596, "MEAN_ANOMALY": 62.3197, "EPHEMERIS_TYPE": 0, "CLASSIFICATION_TYPE": "U", "NORAD_CAT_ID": 35493, "ELEMENT_SET_NO": 999, "REV_AT_EPOCH": 4486, "BSTAR": 0, "MEAN_MOTION_DOT": -1.78e-06, "MEAN_MOTION_DDOT": 0}, "tle": {"line1": "1 35493U 09034A   25355.60419868 -.00000178  00000+0  00000+0 0  9997", "line2": "2 35493   0.0260 287.2191 0001295 232.2596  62.3197  1.00270650 44861"}}, "geometry": {"type": "Point", "coordinates": [65.73075366412223, 0.029879618884897517]}}, {"type": "Feature", "properties": {"norad_id": 36097, "name": "INTELSAT 14 (IS-14)", "group": "intelsat", "lat": 0.035355927192634105, "lon": 106.88296385546015, "alt_km": 35797.01834403814, "timestamp": "2025-12-22T04:03:38.829546+00:00", "meta": {"OBJECT_NAME": "INTELSAT 14 (IS-14)", "OBJECT_ID": "2009-064A", "EPOCH": "2025-12-21T18:07:12.896832", "MEAN_MOTION": 1.00270353, "ECCENTRICITY": 0.0002484, "INCLINATION": 0.0098, "RA_OF_ASC_NODE": 20.2079, "ARG_OF_PERICENTER": 262.4173, "MEAN_ANOMALY": 34.7535, "EPHEMERIS_TYPE": 0, "CLASSIFICATION_TYPE": "U", "NORAD_CAT_ID": 36097, "ELEMENT_SET_NO": 999, "REV_AT_EPOCH": 5882, "BSTAR": 0, "MEAN_MOTION_DOT": -2.51e-06, "MEAN_MOTION_DDOT": 0}, "tle": {"line1": "1 36097U 09064A   25355.75501038 -.00000251  00000+0  00000+0 0  9990", "line2": "2 36097   0.0098  20.2079 0002484 262.4173  34.7535  1.00270353 58828"}}, "geometry": {"type": "Point", "coordinates": [106.88296385546015, 0.035355927192634105]}}, {"type": "Feature", "properties": {"norad_id": 36106, "name": "INTELSAT 15 (IS-15)", "group": "intelsat", "lat": -0.038017829671166695, "lon": -122.97327252341803, "alt_km": 35779.6227886123, "timestamp": "2025-12-22T04:03:38.829558+00:00", "meta": {"OBJECT_NAME": "INTELSAT 15 (IS-15)", "OBJECT_ID": "2009-067A", "EPOCH": "2025-12-21T18:17:56.390208", "MEAN_MOTION": 1.00271632, "ECCENTRICITY": 0.0002176, "INCLINATION": 0.0189, "RA_OF_ASC_NODE": 356.6293, "ARG_OF_PERICENTER": 285.3864, "MEAN_ANOMALY": 168.209, "EPHEMERIS_TYPE": 0, "CLASSIFICATION_TYPE": "U", "NORAD_CAT_ID": 36106, "ELEMENT_SET_NO": 999, "REV_AT_EPOCH": 3945, "BSTAR": 0, "MEAN_MOTION_DOT": -1.63e-06, "MEAN_MOTION_DDOT": 0}, "tle": {"line1": "1 36106U 09067A   25355.76245822 -.00000163  00000+0  00000+0 0  9993", "line2": "2 36106   0.0189 356.6293 0002176 285.3864 168.2090  1.00271632 39451"}}, "geometry": {"type": "Point", "coordinates": [-122.97327252341803, -0.038017829671166695]}}, {"type": "Feature", "properties": {"norad_id": 36131, "name": "DIRECTV 12", "group": "intelsat", "lat": 0.004170623285998304, "lon": 49.17252364192006, "alt_km": 35785.47833853154, "timestamp": "2025-12-22T04:03:38.829570+00:00", "meta": {"OBJECT_NAME": "DIRECTV 12", "OBJECT_ID": "2009-075A", "EPOCH": "2025-12-21T16:08:00.885408", "MEAN_MOTION": 1.00271225, "ECCENTRICITY": 3.4e-05, "INCLINATION": 0.0128, "RA_OF_ASC_NODE": 91.6279, "ARG_OF_PERICENTER": 260.165, "MEAN_ANOMALY": 237.987, "EPHEMERIS_TYPE": 0, "CLASSIFICATION_TYPE": "U", "NORAD_CAT_ID": 36131, "ELEMENT_SET_NO": 999, "REV_AT_EPOCH": 4477, "BSTAR": 0, "MEAN_MOTION_DOT": -8.1e-07, "MEAN_MOTION_DDOT": 0}, "tle": {"line1": "1 36131U 09075A   25355.67223247 -.00000081  00000+0  00000+0 0  9996", "line2": "2 36131   0.0128  91.6279 0000340 260.1650 237.9870  1.00271225 44776"}}, "geometry": {"type": "Point", "coordinates": [49.17252364192006, 0.004170623285998304]}}, {"type": "Feature", "properties": {"norad_id": 36397, "name": "INTELSAT 16 (IS-16)", "group": "intelsat", "lat": 0.03258746489979196, "lon": 75.6991345879859, "alt_km": 35793.547952663335, "timestamp": "2025-12-22T04:03:38.829582+00:00", "meta": {"OBJECT_NAME": "INTELSAT 16 (IS-16)", "OBJECT_ID": "2010-006A", "EPOCH": "2025-12-21T17:58:05.343744", "MEAN_MOTION": 1.00271988, "ECCENTRICITY": 0.0001849, "INCLINATION": 0.0168, "RA_OF_ASC_NODE": 314.1038, "ARG_OF_PERICENTER": 318.7703, "MEAN_ANOMALY": 11.0222, "EPHEMERIS_TYPE": 0, "CLASSIFICATION_TYPE": "U", "NORAD_CAT_ID": 36397, "ELEMENT_SET_NO": 999, "REV_AT_EPOCH": 5787, "BSTAR": 0, "MEAN_MOTION_DOT": -2.22e-06, "MEAN_MOTION_DDOT": 0}, "tle": {"line1": "1 36397U 10006A   25355.74867296 -.00000222  00000+0  00000+0 0  9999", "line2": "2 36397   0.0168 314.1038 0001849 318.7703  11.0222  1.00271988 57877"}}, "geometry": {"type": "Point", "coordinates": [75.6991345879859, 0.03258746489979196]}}, {"type": "Feature", "properties": {"norad_id": 37185, "name": "XM-5", "group": "intelsat", "lat": 0.06353469811025601, "lon": 36.66470436630871, "alt_km": 35790.851659284664, "timestamp": "2025-12-22T04:03:38.829594+00:00", "meta": {"OBJECT_NAME": "XM-5", "OBJECT_ID": "2010-053A", "EPOCH": "2025-12-21T16:04:23.731104", "MEAN_MOTION": 1.00268771, "ECCENTRICITY": 0.0002387, "INCLINATION": 0.068, "RA_OF_ASC_NODE": 270.7208, "ARG_OF_PERICENTER": 239.3618, "MEAN_ANOMALY": 66.315, "EPHEMERIS_TYPE": 0, "CLASSIFICATION_TYPE": "U", "NORAD_CAT_ID": 37185, "ELEMENT_SET_NO": 999, "REV_AT_EPOCH": 5570, "BSTAR": 0, "MEAN_MOTION_DOT": 0, "MEAN_MOTION_DDOT": 0}, "tle": {"line1": "1 37185U 10053A   25355.66971911  .00000000  00000+0  00000+0 0  9991", "line2": "2 37185   0.0680 270.7208 0002387 239.3618  66.3150  1.00268771 55708"}}, "geometry": {"type": "Point", "coordinates": [36.66470436630871, 0.06353469811025601]}}, {"type": "Feature", "properties": {"norad_id": 37238, "name": "INTELSAT 17 (IS-17)", "group": "intelsat", "lat": 0.007238496791403303, "lon": -142.17581438828884, "alt_km": 35782.84656516878, "timestamp": "2025-12-22T04:03:38.829606+00:00", "meta": {"OBJECT_NAME": "INTELSAT 17 (IS-17)", "OBJECT_ID": "2010-065B", "EPOCH": "2025-12-21T10:05:17.244672", "MEAN_MOTION": 1.0027158, "ECCENTRICITY": 0.00028326, "INCLINATION": 0.0322, "RA_OF_ASC_NODE": 71.525, "ARG_OF_PERICENTER": 220.7239, "MEAN_ANOMALY": 15.2864, "EPHEMERIS_TYPE": 0, "CLASSIFICATION_TYPE": "U", "NORAD_CAT_ID": 37238, "ELEMENT_SET_NO": 999, "REV_AT_EPOCH": 5146, "BSTAR": 0, "MEAN_MOTION_DOT": 0, "MEAN_MOTION_DDOT": 0}, "tle": {"line1": "1 37238U 10065B   25355.42033848  .00000000  00000+0  00000+0 0  9995", "line2": "2 37238   0.0322  71.5250 0002832 220.7239  15.2864  1.00271580 51468"}}, "geometry": {"type": "Point", "coordinates": [-142.17581438828884, 0.007238496791403303]}}, {"type": "Feature", "properties": {"norad_id": 37392, "name": "INTELSAT 28 (IS-28)", "group": "intelsat", "lat": 0.8005909651463639, "lon": 120.14952148674313, "alt_km": 35800.79487412653, "timestamp": "2025-12-22T04:03:38.829617+00:00", "meta": {"OBJECT_NAME": "INTELSAT 28 (IS-28)", "OBJECT_ID": "2011-016A", "EPOCH": "2025-12-21T18:10:57.539424", "MEAN_MOTION": 1.00269452, "ECCENTRICITY": 0.0003703, "INCLINATION": 1.3465, "RA_OF_ASC_NODE": 84.9593, "ARG_OF_PERICENTER": 189.4113, "MEAN_ANOMALY": 57.237, "EPHEMERIS_TYPE": 0, "CLASSIFICATION_TYPE": "U", "NORAD_CAT_ID": 37392, "ELEMENT_SET_NO": 999, "REV_AT_EPOCH": 5150, "BSTAR": 0, "MEAN_MOTION_DOT": -2.04e-06, "MEAN_MOTION_DDOT": 0}, "tle": {"line1": "1 37392U 11016A   25355.75761041 -.00000204  00000+0  00000+0 0  9999", "line2": "2 37392   1.3465  84.9593 0003703 189.4113  57.2370  1.00269452 51507"}}, "geometry": {"type": "Point", "coordinates": [120.14952148674313, 0.8005909651463639]}}]}